{
  "hot_city": [
    {
      "id": 1,
      "name": "\u4e0a\u6d77",
      "abbr": "SH",
      "area_code": "021",
      "sort": 1,
      "latitude": 31.23037,
      "longitude": 121.473701,
      "is_map": true,
      "pinyin": "shanghai"
    },
    {
      "id": 10,
      "name": "\u54c8\u5c14\u6ee8",
      "abbr": "HEB",
      "area_code": "0451",
      "sort": 4,
      "latitude": 45.802158,
      "longitude": 126.535797,
      "is_map": true,
      "pinyin": "haerbin"
    },
    {
      "id": 6,
      "name": "\u5357\u4eac",
      "abbr": "NJ",
      "area_code": "025",
      "sort": 5,
      "latitude": 31.84178,
      "longitude": 118.504669,
      "is_map": true,
      "pinyin": "nanjing"
    },
    {
      "id": 4,
      "name": "\u5e7f\u5dde",
      "abbr": "GZ",
      "area_code": "020",
      "sort": 6,
      "latitude": 23.12908,
      "longitude": 113.264359,
      "is_map": true,
      "pinyin": "guangzhou"
    },
    {
      "id": 13,
      "name": "\u53a6\u95e8",
      "abbr": "XM",
      "area_code": "0592",
      "sort": 7,
      "latitude": 24.479509,
      "longitude": 118.089478,
      "is_map": true,
      "pinyin": "xiamen"
    },
    {
      "id": 2,
      "name": "\u676d\u5dde",
      "abbr": "HZ",
      "area_code": "0571",
      "sort": 8,
      "latitude": 30.274151,
      "longitude": 120.155151,
      "is_map": true,
      "pinyin": "hangzhou"
    },
    {
      "id": 5,
      "name": "\u5929\u6d25",
      "abbr": "TJ",
      "area_code": "022",
      "sort": 14,
      "latitude": 39.085098,
      "longitude": 117.199371,
      "is_map": true,
      "pinyin": "tianjin"
    },
    {
      "id": 28,
      "name": "\u9752\u5c9b",
      "abbr": "QD",
      "area_code": "0532",
      "sort": 15,
      "latitude": 36.066231,
      "longitude": 120.382988,
      "is_map": true,
      "pinyin": "qingdao"
    }
  ]
}

